start=new Date('2023-03-18T00:00:00.000Z').valueOf();
sats=[{"OBJECT_ID":"2021-104AL","REV_AT_EPOCH":"7470","SITE":"AFETR","TLE_LINE1":"1 49442U 21104AL  23076.95611306  .00028192  00000-0  17824-2 0  9996","OBJECT_NAME":"STARLINK-3098","DECAY_DATE":null,"EPHEMERIS_TYPE":"0","COUNTRY_CODE":"US","EPOCH":"2023-03-17T22:56:48.168384","SEMIMAJOR_AXIS":"6917.881","ELEMENT_SET_NO":"999","PERIAPSIS":"539.030","RA_OF_ASC_NODE":"52.1429","ARG_OF_PERICENTER":"91.8984","OBJECT_TYPE":"PAYLOAD","FILE":"3863544","BSTAR":"0.00178240000000","PERIOD":"95.438","ECCENTRICITY":"0.00010350","CENTER_NAME":"EARTH","CLASSIFICATION_TYPE":"U","TIME_SYSTEM":"UTC","MEAN_MOTION":"15.08839692","LAUNCH_DATE":"2021-11-13","GP_ID":"228354122","MEAN_MOTION_DOT":"0.00028192","REF_FRAME":"TEME","MEAN_MOTION_DDOT":"0.0000000000000","MEAN_ELEMENT_THEORY":"SGP4","NORAD_CAT_ID":"49442","TLE_LINE2":"2 49442  53.2161  52.1429 0001035  91.8984 268.2126 15.08839692 74700","INCLINATION":"53.2161","RCS_SIZE":"LARGE","MEAN_ANOMALY":"268.2126","APOAPSIS":"540.462"},{"FILE":"3863544","OBJECT_TYPE":"PAYLOAD","LAUNCH_DATE":"2021-11-13","GP_ID":"228355373","MEAN_MOTION":"15.08840971","CLASSIFICATION_TYPE":"U","TIME_SYSTEM":"UTC","CENTER_NAME":"EARTH","ECCENTRICITY":"0.00010110","PERIOD":"95.437","BSTAR":"0.00041477000000","INCLINATION":"53.2172","NORAD_CAT_ID":"49443","TLE_LINE2":"2 49443  53.2172  53.4159 0001011  87.6763 272.4345 15.08840971 74666","MEAN_ELEMENT_THEORY":"SGP4","MEAN_MOTION_DDOT":"0.0000000000000","REF_FRAME":"TEME","MEAN_MOTION_DOT":"0.00006320","APOAPSIS":"540.442","MEAN_ANOMALY":"272.4345","RCS_SIZE":"LARGE","TLE_LINE1":"1 49443U 21104AM  23076.67275139  .00006320  00000-0  41477-3 0  9997","SITE":"AFETR","REV_AT_EPOCH":"7466","OBJECT_ID":"2021-104AM","EPHEMERIS_TYPE":"0","DECAY_DATE":null,"COUNTRY_CODE":"US","OBJECT_NAME":"STARLINK-3136","ELEMENT_SET_NO":"999","SEMIMAJOR_AXIS":"6917.877","EPOCH":"2023-03-17T16:08:45.720096","ARG_OF_PERICENTER":"87.6763","RA_OF_ASC_NODE":"53.4159","PERIAPSIS":"539.043"},{"APOAPSIS":"540.427","MEAN_ANOMALY":"263.7259","RCS_SIZE":"LARGE","INCLINATION":"53.2165","NORAD_CAT_ID":"49444","TLE_LINE2":"2 49444  53.2165  52.1605 0001016  96.3849 263.7259 15.08846934 74705","MEAN_ELEMENT_THEORY":"SGP4","MEAN_MOTION_DDOT":"0.0000000000000","REF_FRAME":"TEME","MEAN_MOTION_DOT":"0.00016907","LAUNCH_DATE":"2021-11-13","GP_ID":"228355623","CLASSIFICATION_TYPE":"U","TIME_SYSTEM":"UTC","MEAN_MOTION":"15.08846934","CENTER_NAME":"EARTH","ECCENTRICITY":"0.00010160","PERIOD":"95.437","BSTAR":"0.00107760000000","FILE":"3863544","OBJECT_TYPE":"PAYLOAD","ARG_OF_PERICENTER":"96.3849","RA_OF_ASC_NODE":"52.1605","PERIAPSIS":"539.021","ELEMENT_SET_NO":"999","SEMIMAJOR_AXIS":"6917.859","EPOCH":"2023-03-17T22:51:30.058272","EPHEMERIS_TYPE":"0","DECAY_DATE":null,"COUNTRY_CODE":"US","OBJECT_NAME":"STARLINK-3126","TLE_LINE1":"1 49444U 21104AN  23076.95243123  .00016907  00000-0  10776-2 0  9996","SITE":"AFETR","REV_AT_EPOCH":"7470","OBJECT_ID":"2021-104AN"},{"EPOCH":"2023-03-17T10:28:17.395680","ELEMENT_SET_NO":"999","SEMIMAJOR_AXIS":"6917.898","PERIAPSIS":"538.558","RA_OF_ASC_NODE":"64.4744","ARG_OF_PERICENTER":"91.3056","OBJECT_ID":"2021-104AP","REV_AT_EPOCH":"7448","TLE_LINE1":"1 49445U 21104AP  23076.43631245  .00005719  00000-0  37720-3 0  9994","SITE":"AFETR","DECAY_DATE":null,"COUNTRY_CODE":"US","EPHEMERIS_TYPE":"0","OBJECT_NAME":"STARLINK-3122","MEAN_ELEMENT_THEORY":"SGP4","MEAN_MOTION_DDOT":"0.0000000000000","MEAN_MOTION_DOT":"0.00005719","REF_FRAME":"TEME","INCLINATION":"53.2162","NORAD_CAT_ID":"49445","TLE_LINE2":"2 49445  53.2162  64.4744 0001742  91.3056 268.8136 15.08834180 74489","RCS_SIZE":"LARGE","APOAPSIS":"540.968","MEAN_ANOMALY":"268.8136","OBJECT_TYPE":"PAYLOAD","FILE":"3863278","PERIOD":"95.438","ECCENTRICITY":"0.00017420","CENTER_NAME":"EARTH","BSTAR":"0.00037720000000","LAUNCH_DATE":"2021-11-13","GP_ID":"228323323","CLASSIFICATION_TYPE":"U","TIME_SYSTEM":"UTC","MEAN_MOTION":"15.08834180"},{"EPHEMERIS_TYPE":"0","DECAY_DATE":null,"COUNTRY_CODE":"US","OBJECT_NAME":"STARLINK-3099","TLE_LINE1":"1 49446U 21104AQ  23076.94875075  .00018887  00000-0  12012-2 0  9998","SITE":"AFETR","OBJECT_ID":"2021-104AQ","REV_AT_EPOCH":"7470","RA_OF_ASC_NODE":"52.1754","ARG_OF_PERICENTER":"104.2619","PERIAPSIS":"538.810","ELEMENT_SET_NO":"999","SEMIMAJOR_AXIS":"6917.845","EPOCH":"2023-03-17T22:46:12.064800","LAUNCH_DATE":"2021-11-13","GP_ID":"228354622","TIME_SYSTEM":"UTC","CLASSIFICATION_TYPE":"U","MEAN_MOTION":"15.08851441","ECCENTRICITY":"0.00013020","PERIOD":"95.437","CENTER_NAME":"EARTH","BSTAR":"0.00120120000000","FILE":"3863544","OBJECT_TYPE":"PAYLOAD","APOAPSIS":"540.611","MEAN_ANOMALY":"255.8518","RCS_SIZE":"LARGE","INCLINATION":"53.2165","TLE_LINE2":"2 49446  53.2165  52.1754 0001302 104.2619 255.8518 15.08851441 74703","NORAD_CAT_ID":"49446","MEAN_MOTION_DDOT":"0.0000000000000","MEAN_ELEMENT_THEORY":"SGP4","MEAN_MOTION_DOT":"0.00018887","REF_FRAME":"TEME"},{"BSTAR":"0.00088404000000","CENTER_NAME":"EARTH","ECCENTRICITY":"0.00014000","PERIOD":"95.438","CLASSIFICATION_TYPE":"U","TIME_SYSTEM":"UTC","MEAN_MOTION":"15.08835815","LAUNCH_DATE":"2021-11-13","GP_ID":"228354874","OBJECT_TYPE":"PAYLOAD","FILE":"3863544","RCS_SIZE":"LARGE","MEAN_ANOMALY":"271.1787","APOAPSIS":"540.727","REF_FRAME":"TEME","MEAN_MOTION_DOT":"0.00013808","MEAN_ELEMENT_THEORY":"SGP4","MEAN_MOTION_DDOT":"0.0000000000000","TLE_LINE2":"2 49447  53.2181  63.3213 0001400  88.9365 271.1787 15.08835815 74527","NORAD_CAT_ID":"49447","INCLINATION":"53.2181","OBJECT_NAME":"STARLINK-3115","DECAY_DATE":null,"EPHEMERIS_TYPE":"0","COUNTRY_CODE":"US","REV_AT_EPOCH":"7452","OBJECT_ID":"2021-104AR","SITE":"AFETR","TLE_LINE1":"1 49447U 21104AR  23076.69391577  .00013808  00000-0  88404-3 0  9998","PERIAPSIS":"538.790","ARG_OF_PERICENTER":"88.9365","RA_OF_ASC_NODE":"63.3213","EPOCH":"2023-03-17T16:39:14.322528","SEMIMAJOR_AXIS":"6917.893","ELEMENT_SET_NO":"999"},{"OBJECT_NAME":"STARLINK-3097","DECAY_DATE":null,"COUNTRY_CODE":"US","EPHEMERIS_TYPE":"0","REV_AT_EPOCH":"7448","OBJECT_ID":"2021-104AS","SITE":"AFETR","TLE_LINE1":"1 49448U 21104AS  23076.44463269  .00012702  00000-0  81459-3 0  9995","PERIAPSIS":"538.951","ARG_OF_PERICENTER":"97.0041","RA_OF_ASC_NODE":"64.4889","EPOCH":"2023-03-17T10:40:16.264416","SEMIMAJOR_AXIS":"6917.863","ELEMENT_SET_NO":"999","BSTAR":"0.00081459000000","CENTER_NAME":"EARTH","PERIOD":"95.437","ECCENTRICITY":"0.00011230","CLASSIFICATION_TYPE":"U","MEAN_MOTION":"15.08845718","TIME_SYSTEM":"UTC","LAUNCH_DATE":"2021-11-13","GP_ID":"228322572","OBJECT_TYPE":"PAYLOAD","FILE":"3863278","RCS_SIZE":"LARGE","MEAN_ANOMALY":"263.1079","APOAPSIS":"540.505","REF_FRAME":"TEME","MEAN_MOTION_DOT":"0.00012702","MEAN_ELEMENT_THEORY":"SGP4","MEAN_MOTION_DDOT":"0.0000000000000","NORAD_CAT_ID":"49448","TLE_LINE2":"2 49448  53.2169  64.4889 0001123  97.0041 263.1079 15.08845718 74482","INCLINATION":"53.2169"},{"RA_OF_ASC_NODE":"62.1463","ARG_OF_PERICENTER":"98.7642","PERIAPSIS":"538.620","ELEMENT_SET_NO":"999","SEMIMAJOR_AXIS":"6917.891","EPOCH":"2023-03-17T22:55:28.750368","DECAY_DATE":null,"COUNTRY_CODE":"US","EPHEMERIS_TYPE":"0","OBJECT_NAME":"STARLINK-3137","TLE_LINE1":"1 49449U 21104AT  23076.95519387  .00005820  00000-0  38351-3 0  9991","SITE":"AFETR","OBJECT_ID":"2021-104AT","REV_AT_EPOCH":"7456","APOAPSIS":"540.893","MEAN_ANOMALY":"261.3536","RCS_SIZE":"LARGE","INCLINATION":"53.2139","TLE_LINE2":"2 49449  53.2139  62.1463 0001643  98.7642 261.3536 15.08836485 74563","NORAD_CAT_ID":"49449","MEAN_ELEMENT_THEORY":"SGP4","MEAN_MOTION_DDOT":"0.0000000000000","MEAN_MOTION_DOT":"0.00005820","REF_FRAME":"TEME","GP_ID":"228354372","LAUNCH_DATE":"2021-11-13","CLASSIFICATION_TYPE":"U","TIME_SYSTEM":"UTC","MEAN_MOTION":"15.08836485","PERIOD":"95.438","ECCENTRICITY":"0.00016430","CENTER_NAME":"EARTH","BSTAR":"0.00038351000000","FILE":"3863544","OBJECT_TYPE":"PAYLOAD"},{"RCS_SIZE":"LARGE","APOAPSIS":"540.582","MEAN_ANOMALY":"269.7187","MEAN_ELEMENT_THEORY":"SGP4","MEAN_MOTION_DDOT":"0.0000000000000","MEAN_MOTION_DOT":"0.00011791","REF_FRAME":"TEME","INCLINATION":"53.2179","TLE_LINE2":"2 49450  53.2179  63.3104 0001210  90.3944 269.7187 15.08840292 74786","NORAD_CAT_ID":"49450","ECCENTRICITY":"0.00012100","PERIOD":"95.438","CENTER_NAME":"EARTH","BSTAR":"0.00075765000000","GP_ID":"228354123","LAUNCH_DATE":"2021-11-13","MEAN_MOTION":"15.08840292","CLASSIFICATION_TYPE":"U","TIME_SYSTEM":"UTC","OBJECT_TYPE":"PAYLOAD","FILE":"3863544","PERIAPSIS":"538.907","RA_OF_ASC_NODE":"63.3104","ARG_OF_PERICENTER":"90.3944","EPOCH":"2023-03-17T16:44:32.146656","ELEMENT_SET_NO":"999","SEMIMAJOR_AXIS":"6917.879","COUNTRY_CODE":"US","DECAY_DATE":null,"EPHEMERIS_TYPE":"0","OBJECT_NAME":"STARLINK-3127","OBJECT_ID":"2021-104AU","REV_AT_EPOCH":"7478","TLE_LINE1":"1 49450U 21104AU  23076.69759429  .00011791  00000-0  75765-3 0  9991","SITE":"AFETR"},{"OBJECT_ID":"2021-104AV","REV_AT_EPOCH":"7452","SITE":"AFETR","TLE_LINE1":"1 49451U 21104AV  23076.68655281  .00017212  00000-0  10968-2 0  9999","OBJECT_NAME":"STARLINK-3125","COUNTRY_CODE":"US","DECAY_DATE":null,"EPHEMERIS_TYPE":"0","EPOCH":"2023-03-17T16:28:38.162784","SEMIMAJOR_AXIS":"6917.869","ELEMENT_SET_NO":"999","PERIAPSIS":"538.807","RA_OF_ASC_NODE":"63.3540","ARG_OF_PERICENTER":"88.4389","OBJECT_TYPE":"PAYLOAD","FILE":"3863544","BSTAR":"0.00109680000000","ECCENTRICITY":"0.00013400","PERIOD":"95.437","CENTER_NAME":"EARTH","CLASSIFICATION_TYPE":"U","TIME_SYSTEM":"UTC","MEAN_MOTION":"15.08843743","GP_ID":"228355374","LAUNCH_DATE":"2021-11-13","MEAN_MOTION_DOT":"0.00017212","REF_FRAME":"TEME","MEAN_ELEMENT_THEORY":"SGP4","MEAN_MOTION_DDOT":"0.0000000000000","NORAD_CAT_ID":"49451","TLE_LINE2":"2 49451  53.2153  63.3540 0001340  88.4389 271.6756 15.08843743 74528","INCLINATION":"53.2153","RCS_SIZE":"LARGE","MEAN_ANOMALY":"271.6756","APOAPSIS":"540.661"}];
